{
  "type": "FeatureCollection",
  "features": [
    {
      "type": "Feature",
      "properties": {
        "norad_id": 41948,
        "name": "CARTOSAT-2D",
        "group": "resource",
        "lat": 8.649089935811396,
        "lon": -126.78422767294117,
        "alt_km": 506.6740926558696,
        "timestamp": "2025-12-20T16:47:35.948907+00:00",
        "meta_object_name": "CARTOSAT-2D",
        "meta_object_id": "2017-008A",
        "meta_epoch": "2025-12-20T11:18:02.670336",
        "meta_mean_motion": 15.19331591,
        "meta_eccentricity": 0.0005336,
        "meta_inclination": 97.4386,
        "meta_ra_of_asc_node": 51.8516,
        "meta_arg_of_pericenter": 138.5953,
        "meta_mean_anomaly": 221.5687,
        "meta_ephemeris_type": 0,
        "meta_classification_type": "U",
        "meta_norad_cat_id": 41948,
        "meta_element_set_no": 999,
        "meta_rev_at_epoch": 49044,
        "meta_bstar": 0.00021222,
        "meta_mean_motion_dot": 4.417e-05,
        "meta_mean_motion_ddot": 0,
        "tle_line1": "1 41948U 17008A   25354.47086424  .00004417  00000+0  21222-3 0  9993",
        "tle_line2": "2 41948  97.4386  51.8516 0005336 138.5953 221.5687 15.19331591490442"
      },
      "geometry": {
        "type": "Point",
        "coordinates": [
          -126.78422767294117,
          8.649089935811396
        ]
      }
    },
    {
      "type": "Feature",
      "properties": {
        "norad_id": 42063,
        "name": "SENTINEL-2B",
        "group": "resource",
        "lat": 56.79912150198674,
        "lon": -99.64045209174662,
        "alt_km": 782.7991543966255,
        "timestamp": "2025-12-20T16:47:35.948936+00:00",
        "meta_object_name": "SENTINEL-2B",
        "meta_object_id": "2017-013A",
        "meta_epoch": "2025-12-20T11:11:22.468128",
        "meta_mean_motion": 14.30814386,
        "meta_eccentricity": 0.0001197,
        "meta_inclination": 98.5715,
        "meta_ra_of_asc_node": 66.8043,
        "meta_arg_of_pericenter": 91.9065,
        "meta_mean_anomaly": 268.2255,
        "meta_ephemeris_type": 0,
        "meta_classification_type": "U",
        "meta_norad_cat_id": 42063,
        "meta_element_set_no": 999,
        "meta_rev_at_epoch": 45908,
        "meta_bstar": 0.00016445,
        "meta_mean_motion_dot": 3.87e-06,
        "meta_mean_motion_ddot": 0,
        "tle_line1": "1 42063U 17013A   25354.46623227  .00000387  00000+0  16445-3 0  9998",
        "tle_line2": "2 42063  98.5715  66.8043 0001197  91.9065 268.2255 14.30814386459081"
      },
      "geometry": {
        "type": "Point",
        "coordinates": [
          -99.64045209174662,
          56.79912150198674
        ]
      }
    },
    {
      "type": "Feature",
      "properties": {
        "norad_id": 42767,
        "name": "CARTOSAT-2E",
        "group": "resource",
        "lat": 77.69416840126698,
        "lon": 15.291077900774532,
        "alt_km": 501.5475220719509,
        "timestamp": "2025-12-20T16:47:35.948949+00:00",
        "meta_object_name": "CARTOSAT-2E",
        "meta_object_id": "2017-036C",
        "meta_epoch": "2025-12-20T13:16:48.460224",
        "meta_mean_motion": 15.19275194,
        "meta_eccentricity": 0.0002506,
        "meta_inclination": 97.4555,
        "meta_ra_of_asc_node": 52.039,
        "meta_arg_of_pericenter": 198.053,
        "meta_mean_anomaly": 162.0616,
        "meta_ephemeris_type": 0,
        "meta_classification_type": "U",
        "meta_norad_cat_id": 42767,
        "meta_element_set_no": 999,
        "meta_rev_at_epoch": 47102,
        "meta_bstar": 0.0002919,
        "meta_mean_motion_dot": 6.09e-05,
        "meta_mean_motion_ddot": 0,
        "tle_line1": "1 42767U 17036C   25354.55333866  .00006090  00000+0  29190-3 0  9999",
        "tle_line2": "2 42767  97.4555  52.0390 0002506 198.0530 162.0616 15.19275194471021"
      },
      "geometry": {
        "type": "Point",
        "coordinates": [
          15.291077900774532,
          77.69416840126698
        ]
      }
    },
    {
      "type": "Feature",
      "properties": {
        "norad_id": 42920,
        "name": "FORMOSAT-5",
        "group": "resource",
        "lat": -21.753371602635838,
        "lon": 72.17561785177487,
        "alt_km": 725.3600149170952,
        "timestamp": "2025-12-20T16:47:35.948962+00:00",
        "meta_object_name": "FORMOSAT-5",
        "meta_object_id": "2017-049A",
        "meta_epoch": "2025-12-20T11:55:42.929760",
        "meta_mean_motion": 14.50764716,
        "meta_eccentricity": 0.0009831,
        "meta_inclination": 98.2444,
        "meta_ra_of_asc_node": 68.6604,
        "meta_arg_of_pericenter": 275.1493,
        "meta_mean_anomaly": 84.858,
        "meta_ephemeris_type": 0,
        "meta_classification_type": "U",
        "meta_norad_cat_id": 42920,
        "meta_element_set_no": 999,
        "meta_rev_at_epoch": 44076,
        "meta_bstar": 4.7468e-05,
        "meta_mean_motion_dot": 1.43e-06,
        "meta_mean_motion_ddot": 0,
        "tle_line1": "1 42920U 17049A   25354.49702465  .00000143  00000+0  47468-4 0  9994",
        "tle_line2": "2 42920  98.2444  68.6604 0009831 275.1493  84.8580 14.50764716440767"
      },
      "geometry": {
        "type": "Point",
        "coordinates": [
          72.17561785177487,
          -21.753371602635838
        ]
      }
    },
    {
      "type": "Feature",
      "properties": {
        "norad_id": 42969,
        "name": "SENTINEL-5P",
        "group": "resource",
        "lat": -16.468566876589037,
        "lon": 110.59510693772258,
        "alt_km": 831.9753718976926,
        "timestamp": "2025-12-20T16:47:35.948973+00:00",
        "meta_object_name": "SENTINEL-5P",
        "meta_object_id": "2017-064A",
        "meta_epoch": "2025-12-20T10:47:43.322208",
        "meta_mean_motion": 14.19519262,
        "meta_eccentricity": 0.0001016,
        "meta_inclination": 98.7796,
        "meta_ra_of_asc_node": 292.9659,
        "meta_arg_of_pericenter": 90.6854,
        "meta_mean_anomaly": 269.4438,
        "meta_ephemeris_type": 0,
        "meta_classification_type": "U",
        "meta_norad_cat_id": 42969,
        "meta_element_set_no": 999,
        "meta_rev_at_epoch": 42420,
        "meta_bstar": 4.2558e-05,
        "meta_mean_motion_dot": 4.6e-07,
        "meta_mean_motion_ddot": 0,
        "tle_line1": "1 42969U 17064A   25354.44980697  .00000046  00000+0  42558-4 0  9991",
        "tle_line2": "2 42969  98.7796 292.9659 0001016  90.6854 269.4438 14.19519262424208"
      },
      "geometry": {
        "type": "Point",
        "coordinates": [
          110.59510693772258,
          -16.468566876589037
        ]
      }
    },
    {
      "type": "Feature",
      "properties": {
        "norad_id": 42987,
        "name": "SKYSAT-C11",
        "group": "resource",
        "lat": 14.495456368549176,
        "lon": 130.46096964986455,
        "alt_km": 424.2453039836528,
        "timestamp": "2025-12-20T16:47:35.948984+00:00",
        "meta_object_name": "SKYSAT-C11",
        "meta_object_id": "2017-068A",
        "meta_epoch": "2025-12-20T08:58:19.560000",
        "meta_mean_motion": 15.47751226,
        "meta_eccentricity": 0.0001161,
        "meta_inclination": 97.4144,
        "meta_ra_of_asc_node": 132.0563,
        "meta_arg_of_pericenter": 99.9732,
        "meta_mean_anomaly": 260.1649,
        "meta_ephemeris_type": 0,
        "meta_classification_type": "U",
        "meta_norad_cat_id": 42987,
        "meta_element_set_no": 999,
        "meta_rev_at_epoch": 45549,
        "meta_bstar": 0.00032105,
        "meta_mean_motion_dot": 0.00016553,
        "meta_mean_motion_ddot": 0,
        "tle_line1": "1 42987U 17068A   25354.37383750  .00016553  00000+0  32105-3 0  9990",
        "tle_line2": "2 42987  97.4144 132.0563 0001161  99.9732 260.1649 15.47751226455494"
      },
      "geometry": {
        "type": "Point",
        "coordinates": [
          130.46096964986455,
          14.495456368549176
        ]
      }
    },
    {
      "type": "Feature",
      "properties": {
        "norad_id": 42988,
        "name": "SKYSAT-C10",
        "group": "resource",
        "lat": 12.425163702480175,
        "lon": 123.92643437401908,
        "alt_km": 469.19988439500594,
        "timestamp": "2025-12-20T16:47:35.948995+00:00",
        "meta_object_name": "SKYSAT-C10",
        "meta_object_id": "2017-068B",
        "meta_epoch": "2025-12-20T07:20:04.512192",
        "meta_mean_motion": 15.32214409,
        "meta_eccentricity": 0.0005368,
        "meta_inclination": 97.4268,
        "meta_ra_of_asc_node": 125.1781,
        "meta_arg_of_pericenter": 82.7976,
        "meta_mean_anomaly": 277.3876,
        "meta_ephemeris_type": 0,
        "meta_classification_type": "U",
        "meta_norad_cat_id": 42988,
        "meta_element_set_no": 999,
        "meta_rev_at_epoch": 45495,
        "meta_bstar": 0.00027923,
        "meta_mean_motion_dot": 8.611e-05,
        "meta_mean_motion_ddot": 0,
        "tle_line1": "1 42988U 17068B   25354.30560778  .00008611  00000+0  27923-3 0  9999",
        "tle_line2": "2 42988  97.4268 125.1781 0005368  82.7976 277.3876 15.32214409454953"
      },
      "geometry": {
        "type": "Point",
        "coordinates": [
          123.92643437401908,
          12.425163702480175
        ]
      }
    }
  ]
}